OBJECT_NAME,OBJECT_ID,EPOCH,MEAN_MOTION,ECCENTRICITY,INCLINATION,RA_OF_ASC_NODE,ARG_OF_PERICENTER,MEAN_ANOMALY,EPHEMERIS_TYPE,CLASSIFICATION_TYPE,NORAD_CAT_ID,ELEMENT_SET_NO,REV_AT_EPOCH,BSTAR,MEAN_MOTION_DOT,MEAN_MOTION_DDOT
PERSEUS-M1,2014-033AF,2026-07-04T19:57:58.103136,14.95692465,.00102871,97.9646,130.2544,235.1883,124.8370,0,U,40039,999,65327,.18147408E-3,.196E-4,0
POLYITAN-1,2014-033AJ,2026-07-04T19:12:10.423296,15.33929039,.00085537,98.0938,213.7346,93.3009,266.9210,0,U,40042,999,65629,.12334785E-2,.40613E-3,0
TIGRISAT,2014-033AK,2026-07-04T08:43:01.388064,14.85224756,.00495846,97.7854,334.9834,19.9094,340.4041,0,U,40043,999,64817,.24133892E-3,.206E-4,0
AEROCUBE 6A,2014-033AM,2026-07-04T22:09:04.775616,14.98273627,.00375261,97.7236,352.6854,316.1698,43.6548,0,U,40045,999,64927,.73231744E-3,.878E-4,0
AEROCUBE 6B,2014-033AN,2026-07-04T16:59:19.634496,14.99734337,.00377699,97.7222,352.3012,307.3832,52.3954,0,U,40046,999,64938,.78733604E-3,.9815E-4,0
CANX-4,2014-034C,2026-07-04T09:03:02.088864,14.81296926,.00119131,98.3099,61.3195,320.9718,39.0633,0,U,40055,999,64707,.15483266E-3,.1152E-4,0
CANX-5,2014-034D,2026-07-04T09:00:29.398464,14.81314200,.00119023,98.3101,61.3623,321.2001,38.8355,0,U,40056,999,63788,.15410853E-3,.1146E-4,0
UKUBE-1,2014-037F,2026-07-04T22:48:40.755744,15.13840631,.00032765,98.4244,191.0920,104.6577,255.5016,0,U,40074,999,65124,.8055371E-3,.14502E-3,0
BRITE-PL2 (HEWELIUSZ),2014-049B,2026-07-04T01:02:11.887296,14.94655576,.00150118,97.9112,297.1746,57.2784,302.9880,0,U,40119,999,64396,.20566641E-3,.2174E-4,0
AEROCUBE 5C,2015-058B,2026-07-04T19:19:39.549504,14.91534228,.01316536,64.7653,207.7778,56.4097,304.9501,0,U,40965,999,36828,.35656152E-3,.4057E-4,0
AEROCUBE 7,2015-058C,2026-07-04T06:47:45.797280,14.95836497,.01213425,64.7604,191.2627,54.9541,306.2885,0,U,40966,999,36851,.42223492E-3,.531E-4,0
FOX-1A (AO-85),2015-058D,2026-07-04T12:33:30.252384,14.91048439,.01315515,64.7734,225.1060,49.8694,311.3855,0,U,40967,999,11615,.3512886E-3,.394E-4,0
SINOD-D 1,2015-058E,2026-07-04T19:03:09.604224,14.96022624,.01202372,64.7732,203.7706,46.1451,314.9522,0,U,40968,999,11929,.52841532E-3,.6711E-4,0
SNAP-3 ALICE,2015-058G,2026-07-04T07:55:19.293888,15.64598507,.00235635,64.7492,44.4860,357.8028,2.3012,0,U,40970,999,11956,.19474102E-2,.19646E-2,0
LMRST-SAT,2015-058H,2026-07-04T19:38:34.831680,14.90664786,.01331418,64.7740,220.5596,51.7678,309.5330,0,U,40971,999,11618,.30541901E-3,.3379E-4,0
SNAP-3 EDDIE,2015-058J,2026-07-04T13:29:31.024032,15.65987185,.00243227,64.7407,34.2735,0.3390,359.7771,0,U,40972,999,12174,.26862482E-2,.290014E-2,0
PROPCUBE 3,2015-058K,2026-07-04T17:50:58.487136,14.94359181,.01250166,64.7667,197.6782,53.0280,308.2201,0,U,40973,999,11742,.48188723E-3,.5898E-4,0
BISONSAT,2015-058L,2026-07-04T05:54:21.382848,15.16671744,.00809582,64.7584,118.4723,40.4413,320.2690,0,U,40974,999,11820,.99021779E-3,.21042E-3,0
SNAP-3 JIMI,2015-058M,2026-07-04T08:42:48.407328,15.02488647,.01071052,64.7641,165.4213,48.5410,312.4844,0,U,40975,999,11680,.65023224E-3,.9639E-4,0
PROPCUBE 1 (FLORA),2015-058N,2026-07-04T20:33:40.514688,14.89296899,.01317751,64.7734,240.4711,54.0396,307.2853,0,U,40976,999,11889,.29219022E-3,.3094E-4,0
SINOD-D 3,2015-058P,2026-07-04T20:17:00.539232,14.94120649,.01203328,64.7707,220.6749,51.1355,310.0421,0,U,40977,999,11739,.42947365E-3,.5141E-4,0
RAVAN,2016-067B,2026-07-04T03:43:58.531584,15.56420115,.00016778,97.9852,76.7075,308.8604,51.2499,0,U,41849,999,53033,.11220145E-2,.79818E-3,0
CELTEE 1,2016-067C,2026-07-04T14:08:23.087904,15.19863880,.00018975,98.0647,53.3426,123.3801,236.7614,0,U,41850,999,52852,.46272408E-3,.9856E-4,0
OPTICUBE 04,2016-067D,2026-07-04T13:50:57.334272,15.09741314,.00168913,98.0683,38.7671,61.7150,298.5780,0,U,41851,999,52779,.21614707E-3,.3426E-4,0
AEROCUBE 8D,2016-067E,2026-07-03T21:25:42.449952,15.24636107,.00049779,98.0655,56.3352,83.6012,276.5791,0,U,41852,999,52861,.36506004E-3,.8936E-4,0
AEROCUBE 8C,2016-067F,2026-07-03T14:05:15.643968,15.24882899,.0005433,98.0528,53.2126,21.9953,338.1515,0,U,41853,999,52856,.37755827E-3,.9314E-4,0
CORVUS BC2,2017-042X,2026-07-04T09:35:27.411648,15.06405436,.00139663,97.4083,346.0818,56.8033,303.4532,0,U,42846,999,48965,.35041268E-3,.5115E-4,0
CORVUS BC1,2017-042Y,2026-07-04T22:10:05.099232,15.06581280,.00125077,97.4124,347.4115,34.0199,326.1828,0,U,42847,999,48976,.38214477E-3,.5608E-4,0
MAKERSAT 0,2017-073D,2026-07-03T15:15:45.488160,15.32642938,.01049552,97.4595,67.2865,213.5729,145.8834,0,U,43016,999,46898,.55467001E-3,.20784E-3,0
SIRION PATHFINDER-2,2018-099B,2026-07-04T02:16:00.892128,15.14697580,.00075007,97.4239,233.7506,233.6090,126.4451,0,U,43759,999,41518,.32928266E-3,.6036E-4,0
