PERSEUS-M1              
1 40039U 14033AF  26185.83192249  .00001960  00000+0  18147-3 0  9996
2 40039  97.9646 130.2544 0010287 235.1883 124.8370 14.95692465653275
POLYITAN-1              
1 40042U 14033AJ  26185.80012064  .00040613  00000+0  12335-2 0  9993
2 40042  98.0938 213.7346 0008553  93.3009 266.9210 15.33929039656298
TIGRISAT                
1 40043U 14033AK  26185.36321051  .00002060  00000+0  24134-3 0  9999
2 40043  97.7854 334.9834 0049584  19.9094 340.4041 14.85224756648175
AEROCUBE 6A             
1 40045U 14033AM  26185.92297194  .00008780  00000+0  73232-3 0  9991
2 40045  97.7236 352.6854 0037526 316.1698  43.6548 14.98273627649276
AEROCUBE 6B             
1 40046U 14033AN  26185.70786614  .00009815  00000+0  78734-3 0  9990
2 40046  97.7222 352.3012 0037769 307.3832  52.3954 14.99734337649387
CANX-4                  
1 40055U 14034C   26185.37710751  .00001152  00000+0  15483-3 0  9991
2 40055  98.3099  61.3195 0011913 320.9718  39.0633 14.81296926647070
CANX-5                  
1 40056U 14034D   26185.37534026  .00001146  00000+0  15411-3 0  9995
2 40056  98.3101  61.3623 0011902 321.2001  38.8355 14.81314200637880
UKUBE-1                 
1 40074U 14037F   26185.95047171  .00014502  00000+0  80554-3 0  9992
2 40074  98.4244 191.0920 0003276 104.6577 255.5016 15.13840631651242
BRITE-PL2 (HEWELIUSZ)   
1 40119U 14049B   26185.04319314  .00002174  00000+0  20567-3 0  9996
2 40119  97.9112 297.1746 0015011  57.2784 302.9880 14.94655576643963
AEROCUBE 5C             
1 40965U 15058B   26185.80531886  .00004057  00000+0  35656-3 0  9997
2 40965  64.7653 207.7778 0131653  56.4097 304.9501 14.91534228368283
AEROCUBE 7              
1 40966U 15058C   26185.28316895  .00005310  00000+0  42223-3 0  9992
2 40966  64.7604 191.2627 0121342  54.9541 306.2885 14.95836497368514
FOX-1A (AO-85)          
1 40967U 15058D   26185.52326681  .00003940  00000+0  35129-3 0  9998
2 40967  64.7734 225.1060 0131551  49.8694 311.3855 14.91048439116154
SINOD-D 1               
1 40968U 15058E   26185.79386116  .00006711  00000+0  52842-3 0  9997
2 40968  64.7732 203.7706 0120237  46.1451 314.9522 14.96022624119293
SNAP-3 ALICE            
1 40970U 15058G   26185.33008442  .00196460  00000+0  19474-2 0  9997
2 40970  64.7492  44.4860 0023563 357.8028   2.3012 15.64598507119562
LMRST-SAT               
1 40971U 15058H   26185.81845870  .00003379  00000+0  30542-3 0  9991
2 40971  64.7740 220.5596 0133141  51.7678 309.5330 14.90664786116188
SNAP-3 EDDIE            
1 40972U 15058J   26185.56216463  .00290014  00000+0  26862-2 0  9997
2 40972  64.7407  34.2735 0024322   0.3390 359.7771 15.65987185121743
PROPCUBE 3              
1 40973U 15058K   26185.74373249  .00005898  00000+0  48189-3 0  9995
2 40973  64.7667 197.6782 0125016  53.0280 308.2201 14.94359181117420
BISONSAT                
1 40974U 15058L   26185.24608082  .00021042  00000+0  99022-3 0  9998
2 40974  64.7584 118.4723 0080958  40.4413 320.2690 15.16671744118208
SNAP-3 JIMI             
1 40975U 15058M   26185.36306027  .00009639  00000+0  65023-3 0  9998
2 40975  64.7641 165.4213 0107105  48.5410 312.4844 15.02488647116800
PROPCUBE 1 (FLORA)      
1 40976U 15058N   26185.85671892  .00003094  00000+0  29219-3 0  9994
2 40976  64.7734 240.4711 0131775  54.0396 307.2853 14.89296899118899
SINOD-D 3               
1 40977U 15058P   26185.84514513  .00005141  00000+0  42947-3 0  9998
2 40977  64.7707 220.6749 0120332  51.1355 310.0421 14.94120649117393
RAVAN                   
1 41849U 16067B   26185.15553856  .00079818  00000+0  11220-2 0  9996
2 41849  97.9852  76.7075 0001677 308.8604  51.2499 15.56420115530334
CELTEE 1                
1 41850U 16067C   26185.58915611  .00009856  00000+0  46272-3 0  9997
2 41850  98.0647  53.3426 0001897 123.3801 236.7614 15.19863880528520
OPTICUBE 04             
1 41851U 16067D   26185.57705248  .00003426  00000+0  21615-3 0  9991
2 41851  98.0683  38.7671 0016891  61.7150 298.5780 15.09741314527796
AEROCUBE 8D             
1 41852U 16067E   26184.89285243  .00008936  00000+0  36506-3 0  9990
2 41852  98.0655  56.3352 0004977  83.6012 276.5791 15.24636107528610
AEROCUBE 8C             
1 41853U 16067F   26184.58698662  .00009314  00000+0  37756-3 0  9999
2 41853  98.0528  53.2126 0005433  21.9953 338.1515 15.24882899528566
CORVUS BC2              
1 42846U 17042X   26185.39962282  .00005115  00000+0  35041-3 0  9998
2 42846  97.4083 346.0818 0013966  56.8033 303.4532 15.06405436489653
CORVUS BC1              
1 42847U 17042Y   26185.92367013  .00005608  00000+0  38214-3 0  9991
2 42847  97.4124 347.4115 0012507  34.0199 326.1828 15.06581280489760
MAKERSAT 0              
1 43016U 17073D   26184.63594315  .00020784  00000+0  55467-3 0  9999
2 43016  97.4595  67.2865 0104955 213.5729 145.8834 15.32642938468983
SIRION PATHFINDER-2     
1 43759U 18099B   26185.09445477  .00006036  00000+0  32928-3 0  9998
2 43759  97.4239 233.7506 0007500 233.6090 126.4451 15.14697580415183
